{"sg-573DE08D":{"sc-573DE08D":14,"mfupp--s-573DE08D":[{"mfupp--sqlca":{"SQLCA--SQLCODE":0,"SQLCA--SQLERRM":{"SQLCA--SQLERRML":8224,"SQLCA--SQLERRMC":" "},"SQLCA--SQLSTATE":"00000"},"ENO":124,"LNAME":"Doe","FNAME":"Jams","STREET":"123, Nowhere Lane","CITY":"Noplace","ST":"NA","ZIP":"00100","DEPT":"DEP1","PAYRATE":300.00,"COM":2.00,"COM-NULL-IND":0},{"mfupp--sqlca":{"SQLCA--SQLCODE":0,"SQLCA--SQLERRM":{"SQLCA--SQLERRML":8224,"SQLCA--SQLERRMC":" "},"SQLCA--SQLSTATE":"00000"},"ENO":125,"LNAME":"Doe","FNAME":"Janet","STREET":"123, Nowhere Lane","CITY":"Noplace","ST":"NA","ZIP":"00100","DEPT":"DEP1","PAYRATE":400.00,"COM":1.23,"COM-NULL-IND":0},{"mfupp--sqlca":{"SQLCA--SQLCODE":0,"SQLCA--SQLERRM":{"SQLCA--SQLERRML":8224,"SQLCA--SQLERRMC":" "},"SQLCA--SQLSTATE":"00000"},"ENO":126,"LNAME":"Doe","FNAME":"Jacab","STREET":"123, Nowhere Lane","CITY":"Noplace","ST":"NA","ZIP":"00100","DEPT":"DEP1","PAYRATE":500.00,"COM":1.23,"COM-NULL-IND":0},{"mfupp--sqlca":{"SQLCA--SQLCODE":0,"SQLCA--SQLERRM":{"SQLCA--SQLERRML":8224,"SQLCA--SQLERRMC":" "},"SQLCA--SQLSTATE":"00000"},"ENO":123,"LNAME":"Doe","FNAME":"John","STREET":"123, Nowhere Lane","CITY":"Noplace","ST":"NA","ZIP":"00100","DEPT":"DEP1","PAYRATE":200.00,"COM":1.23,"COM-NULL-IND":0},{"mfupp--sqlca":{"SQLCA--SQLCODE":0,"SQLCA--SQLERRM":{"SQLCA--SQLERRML":8224,"SQLCA--SQLERRMC":" "},"SQLCA--SQLSTATE":"00000"},"ENO":125,"LNAME":"Doe","FNAME":"Janet","STREET":"123, Nowhere Lane","CITY":"Noplace","ST":"NA","ZIP":"00100","DEPT":"DEP1","PAYRATE":400.00,"COM":1.23,"COM-NULL-IND":0},{"mfupp--sqlca":{"SQLCA--SQLCODE":0,"SQLCA--SQLERRM":{"SQLCA--SQLERRML":8224,"SQLCA--SQLERRMC":" "},"SQLCA--SQLSTATE":"00000"},"ENO":126,"LNAME":"Doe","FNAME":"Jacab","STREET":"123, Nowhere Lane","CITY":"Noplace","ST":"NA","ZIP":"00100","DEPT":"DEP1","PAYRATE":500.00,"COM":1.23,"COM-NULL-IND":0},{"mfupp--sqlca":{"SQLCA--SQLCODE":0,"SQLCA--SQLERRM":{"SQLCA--SQLERRML":8224,"SQLCA--SQLERRMC":" "},"SQLCA--SQLSTATE":"00000"},"ENO":123,"LNAME":"Doe","FNAME":"John","STREET":"123, Nowhere Lane","CITY":"Noplace","ST":"NA","ZIP":"00100","DEPT":"DEP1","PAYRATE":200.00,"COM":1.23,"COM-NULL-IND":0},{"mfupp--sqlca":{"SQLCA--SQLCODE":0,"SQLCA--SQLERRM":{"SQLCA--SQLERRML":8224,"SQLCA--SQLERRMC":" "},"SQLCA--SQLSTATE":"00000"},"ENO":123,"LNAME":"Doe","FNAME":"John","STREET":"123, Nowhere Lane","CITY":"Noplace","ST":"NA","ZIP":"00100","DEPT":"DEP1","PAYRATE":200.00,"COM":1.23,"COM-NULL-IND":0},{"mfupp--sqlca":{"SQLCA--SQLCODE":0,"SQLCA--SQLERRM":{"SQLCA--SQLERRML":8224,"SQLCA--SQLERRMC":" "},"SQLCA--SQLSTATE":"00000"},"ENO":400,"LNAME":"Smith","FNAME":"John","STREET":"123, Nowhere Lane","CITY":"Noplace","ST":"NA","ZIP":"00100","DEPT":"DEP2","PAYRATE":600.00,"COM":1.23,"COM-NULL-IND":0},{"mfupp--sqlca":{"SQLCA--SQLCODE":0,"SQLCA--SQLERRM":{"SQLCA--SQLERRML":8224,"SQLCA--SQLERRMC":" "},"SQLCA--SQLSTATE":"00000"},"ENO":456,"LNAME":"Smith","FNAME":"Jane","STREET":"456, Someplace Rd.","CITY":"Somewhere","ST":"NA","ZIP":"00111","DEPT":"DEP2","PAYRATE":130.00,"COM":3.45,"COM-NULL-IND":0},{"mfupp--sqlca":{"SQLCA--SQLCODE":0,"SQLCA--SQLERRM":{"SQLCA--SQLERRML":8224,"SQLCA--SQLERRMC":" "},"SQLCA--SQLSTATE":"00000"},"ENO":456,"LNAME":"Smith","FNAME":"Jane","STREET":"456, Someplace Rd.","CITY":"Somewhere","ST":"NA","ZIP":"00111","DEPT":"DEP2","PAYRATE":130.00,"COM":3.45,"COM-NULL-IND":0},{"mfupp--sqlca":{"SQLCA--SQLCODE":0,"SQLCA--SQLERRM":{"SQLCA--SQLERRML":8224,"SQLCA--SQLERRMC":" "},"SQLCA--SQLSTATE":"00000"},"ENO":400,"LNAME":"Smith","FNAME":"John","STREET":"123, Nowhere Lane","CITY":"Noplace","ST":"NA","ZIP":"00100","DEPT":"DEP2","PAYRATE":600.00,"COM":1.23,"COM-NULL-IND":0},{"mfupp--sqlca":{"SQLCA--SQLCODE":0,"SQLCA--SQLERRM":{"SQLCA--SQLERRML":8224,"SQLCA--SQLERRMC":" "},"SQLCA--SQLSTATE":"00000"},"ENO":456,"LNAME":"Smith","FNAME":"Jane","STREET":"456, Someplace Rd.","CITY":"Somewhere","ST":"NA","ZIP":"00111","DEPT":"DEP2","PAYRATE":130.00,"COM":3.45,"COM-NULL-IND":0},{"mfupp--sqlca":{"SQLCA--SQLCODE":100,"SQLCA--SQLERRM":{"SQLCA--SQLERRML":1,"SQLCA--SQLERRMC":" "},"SQLCA--SQLSTATE":"02000"},"ENO":0,"LNAME":" ","FNAME":" ","STREET":" ","CITY":" ","ST":" ","ZIP":" ","DEPT":" ","PAYRATE":0.00,"COM":0.00,"COM-NULL-IND":0}]}}